{
    "links": {
        "self": "http://www.neowsapp.com/rest/v1/neo/3779446?api_key=iIulBulltgU6a56xZRHN4H3l9WmuAYTsLGpBGhQ2"
    },
    "id": "3779446",
    "neo_reference_id": "3779446",
    "name": "(2017 OB68)",
    "designation": "2017 OB68",
    "nasa_jpl_url": "http://ssd.jpl.nasa.gov/sbdb.cgi?sstr=3779446",
    "absolute_magnitude_h": 23.4,
    "estimated_diameter": {
        "kilometers": {
            "estimated_diameter_min": 0.0555334912,
            "estimated_diameter_max": 0.1241766613
        },
        "meters": {
            "estimated_diameter_min": 55.5334911581,
            "estimated_diameter_max": 124.1766612574
        },
        "miles": {
            "estimated_diameter_min": 0.0345069009,
            "estimated_diameter_max": 0.0771597762
        },
        "feet": {
            "estimated_diameter_min": 182.1964991311,
            "estimated_diameter_max": 407.4037573197
        }
    },
    "is_potentially_hazardous_asteroid": false,
    "close_approach_data": [
        {
            "close_approach_date": "2017-07-12",
            "close_approach_date_full": "2017-Jul-12 18:05",
            "epoch_date_close_approach": 1499882700000,
            "relative_velocity": {
                "kilometers_per_second": "5.4732185304",
                "kilometers_per_hour": "19703.5867095115",
                "miles_per_hour": "12243.0425306962"
            },
            "miss_distance": {
                "astronomical": "0.2272542975",
                "lunar": "88.4019217275",
                "kilometers": "33996758.854346325",
                "miles": "21124606.391076285"
            },
            "orbiting_body": "Earth"
        }
    ],
    "orbital_data": {
        "orbit_id": "6",
        "orbit_determination_date": "2017-10-31 06:19:10",
        "first_observation_date": "2017-07-30",
        "last_observation_date": "2017-08-18",
        "data_arc_in_days": 19,
        "observations_used": 28,
        "orbit_uncertainty": "8",
        "minimum_orbit_intersection": ".217774",
        "jupiter_tisserand_invariant": "3.439",
        "epoch_osculation": "2457966.5",
        "eccentricity": ".4620026018985607",
        "semi_major_axis": "2.285833471885272",
        "inclination": "8.56910656879802",
        "ascending_node_longitude": "303.4057122017894",
        "orbital_period": "1262.30792467365",
        "perihelion_distance": "1.229772460367456",
        "perihelion_argument": "342.0770663468394",
        "aphelion_distance": "3.341894483403089",
        "perihelion_time": "2457938.228707774155",
        "mean_anomaly": "8.062743647858724",
        "mean_motion": ".2851919036261081",
        "equinox": "J2000",
        "orbit_class": {
            "orbit_class_type": "AMO",
            "orbit_class_description": "Near-Earth asteroid orbits similar to that of 1221 Amor",
            "orbit_class_range": "1.017 AU < q (perihelion) < 1.3 AU"
        }
    },
    "is_sentry_object": false
}